INTELSAT 35E (IS-35E)   
1 42818U 17041A   23087.41949292 -.00000245  00000+0  00000+0 0  9996
2 42818   0.0167 241.2046 0002201 118.4290 302.4409  1.00272560 21017
COSMOS 2520             
1 42907U 17046A   23087.50707508  .00000129  00000+0  00000+0 0  9992
2 42907   0.0195 141.3673 0000177  28.8008 243.0372  1.00273267 20590
TDRS 13                 
1 42915U 17047A   23087.35235882 -.00000107  00000+0  00000+0 0  9993
2 42915   4.1006 336.7327 0016288 105.5240 218.5307  1.00273153 20546
QZS-3 (MICHIBIKI-3)     
1 42917U 17048A   23087.52337488 -.00000356  00000+0  00000+0 0  9996
2 42917   0.0535 178.4034 0001682 183.5079 139.1645  1.00276075 20464
AMAZONAS 5              
1 42934U 17053A   23087.51716150 -.00000290  00000+0  00000+0 0  9994
2 42934   0.0422 334.6364 0005058  11.2342 324.9385  1.00270754 20273
ASIASAT 9               
1 42942U 17057A   23085.32324140 -.00000369  00000+0  00000+0 0  9995
2 42942   0.0045 162.0325 0001853 196.9468  62.9391  1.00268336 20125
INTELSAT 37E (IS-37E)   
1 42950U 17059A   23087.45587692 -.00000148  00000+0  00000+0 0  9990
2 42950   0.0180 211.7557 0002322 153.9886 325.9525  1.00271554 20264
BSAT-4A                 
1 42951U 17059B   23087.51646583 -.00000358  00000+0  00000+0 0  9996
2 42951   0.0574  34.0698 0004695 359.0265  88.3242  1.00272628 20000
QZS-4 (MICHIBIKI-4)     
1 42965U 17062A   23087.31108597 -.00000346  00000+0  00000+0 0  9998
2 42965  40.6895 358.4765 0748127 270.0985 168.5410  1.00277184 20016
SES-11 (ECHOSTAR 105)   
1 42967U 17063A   23087.51640924 -.00000097  00000+0  00000+0 0  9991
2 42967   0.0233 100.7750 0003128 232.8677 292.9635  1.00271971 19922
KOREASAT 5A             
1 42984U 17067A   23087.44895462 -.00000366  00000+0  00000+0 0  9994
2 42984   0.0433  90.5796 0001517 265.3214 104.4597  1.00271978 19737
ALCOMSAT 1              
1 43039U 17078A   23087.42141056 -.00000193  00000+0  00000+0 0  9997
2 43039   0.0179 212.2454 0002336 150.9476 309.2711  1.00272940 19495
SBIRS GEO-3 (USA 282)   
1 43162U 18009A   23087.59007531 -.00000300  00000+0  00000+0 0  9996
2 43162   3.0249 323.1616 0002057  33.8574 180.1214  1.00272129 19047
AL YAH 3                
1 43174U 18012A   23087.42236935 -.00000163  00000+0  00000+0 0  9994
2 43174   0.1627  94.4727 0002998 290.4964 292.5404  1.00271786 19044
SES-14                  
1 43175U 18012B   23087.27350149 -.00000286  00000+0  00000+0 0  9998
2 43175   0.0189 281.0816 0001036  63.1606 252.1375  1.00271651 19253
GOES 17                 
1 43226U 18022A   23087.51641000 -.00000098  00000+0  00000+0 0  9993
2 43226   0.0463  27.7827 0001602   8.3726 230.6511  1.00272371 18628
HISPASAT 30W-6          
1 43228U 18023A   23087.42036456 -.00000224  00000+0  00000+0 0  9990
2 43228   0.0498  33.0448 0005300 343.8325 289.9967  1.00271408 18642
SUPERBIRD-B3            
1 43271U 18033A   23087.64259635 -.00000100  00000+0  00000+0 0  9992
2 43271   0.0150 207.2952 0001426 130.1889 241.6375  1.00270886 18251
HYLAS 4                 
1 43272U 18033B   23087.41966726 -.00000241  00000+0  00000+0 0  9990
2 43272   0.0848 268.8899 0001478  94.0105 300.2295  1.00270724 18271
IRNSS-1I                
1 43286U 18035A   23087.07892237  .00000093  00000+0  00000+0 0  9998
2 43286  28.8893  92.7515 0020071 189.4499 346.4959  1.00274697 18270
USA 283                 
1 43339U 18036A   23085.58894681 -.00000326  00000+0  00000+0 0  9997
2 43339   0.0033 340.0672 0000840  43.6725 146.1159  1.00269637  6929
COSMOS 2526             
1 43432U 18037A   23086.94997314 -.00000353  00000+0  00000+0 0  9990
2 43432   0.0249 130.2827 0000733 301.0734 223.7881  1.00268473 18165
APSTAR 6C               
1 43450U 18041A   23086.87945682 -.00000326  00000+0  00000+0 0  9998
2 43450   0.0184 283.7979 0001126  79.6928 272.1410  1.00269943 18030
BANGABANDHUSAT-1        
1 43463U 18044A   23087.45008775 -.00000370  00000+0  00000+0 0  9992
2 43463   0.0191 182.4957 0002178 177.8489 106.3942  1.00271765 17913
SES-12                  
1 43488U 18049A   23087.51701187 -.00000278  00000+0  00000+0 0  9995
2 43488   0.0348  58.0293 0002088 244.1407 164.6048  1.00272620 17626
FENGYUN 2H              
1 43491U 18050A   23087.59632762 -.00000131  00000+0  00000+0 0  9999
2 43491   1.8705  92.2552 0001804  61.1301 325.9097  1.00267471 17713
BEIDOU-2 IGSO-7         
1 43539U 18057A   23087.73658419 -.00000150  00000+0  00000+0 0  9993
2 43539  55.1015 173.2327 0058274 229.0798 161.1646  1.00279580 17365
TELSTAR 19V             
1 43562U 18059A   23087.51716150 -.00000287  00000+0  00000+0 0  9995
2 43562   0.0189 186.0500 0000785 261.0538 221.7354  1.00271449 17342
TELKOM 4 (MERAH PUTIH)  
1 43587U 18064A   23087.51962681 -.00000352  00000+0  00000+0 0  9993
2 43587   0.0244 119.1367 0001539 271.3724  90.2069  1.00272429 17079
TELSTAR 18V (APSTAR 5C) 
1 43611U 18069A   23087.59007531 -.00000302  00000+0  00000+0 0  9993
2 43611   0.0189 177.2873 0001971 185.0719 173.8179  1.00269574 16826
AZERSPACE 2 (IS-38)     
1 43632U 18074A   23087.50707508  .00000129  00000+0  00000+0 0  9990
2 43632   0.0175 171.8076 0001395 188.6041  52.8911  1.00272660 16646
HORIZONS-3E             
1 43633U 18074B   23087.50304536 -.00000038  00000+0  00000+0 0  9995
2 43633   0.0300  60.0943 0001130 240.3389 235.2904  1.00272686 16554
AEHF-4 (USA 288)        
1 43651U 18079A   23087.51716150 -.00000282  00000+0  00000+0 0  9991
2 43651   2.0673 322.0999 0003074  34.5451 307.6267  1.00268502 16494
BEIDOU-3 G1             
1 43683U 18085A   23087.59007531 -.00000286  00000+0  00000+0 0  9991
2 43683   1.1893 137.5673 0001817  29.3105  11.3201  1.00270455 16264
GSAT-29                 
1 43698U 18089A   23087.50907986  .00000076  00000+0  00000+0 0  9991
2 43698   0.0537  85.1301 0001690 244.8397  94.0636  1.00277468 15984
ES'HAIL 2               
1 43700U 18090A   23087.50315266  .00000136  00000+0  00000+0 0  9998
2 43700   0.0173 173.7157 0001106 184.9401  33.9089  1.00271499 15879
GEO-KOMPSAT-2A          
1 43823U 18100A   23087.45191823 -.00000352  00000+0  00000+0 0  9992
2 43823   0.0466  26.1153 0001400  14.4656  75.9644  1.00273575 15839
GSAT-11                 
1 43824U 18100B   23087.57341146 -.00000085  00000+0  00000+0 0  9994
2 43824   0.0198 246.1643 0004661 177.2219  42.7569  1.00272991 15687
GSAT-7A                 
1 43864U 18105A   23087.15208097  .00000018  00000+0  00000+0 0  9999
2 43864   0.0393 257.3631 0001638  93.4655 312.0390  1.00270842 15658
COSMOS 2533             
1 43867U 18107A   23074.73486910 -.00000042  00000+0  00000+0 0  9994
2 43867   0.0173 124.8401 0000173 135.8955 246.8528  1.00270908 15499
TJS-3                   
1 43874U 18110A   23087.71431454 -.00000245  00000+0  00000+0 0  9996
2 43874   0.0271 116.6822 0001144 291.2471 175.3393  1.00501316 15688
CHINASAT 2D (ZX 2D)     
1 43920U 19001A   23087.61212747 -.00000345  00000+0  00000+0 0  9990
2 43920   0.0452 300.3053 0000504 196.5770  39.2459  1.00270821 15558
HELLAS-SAT 4 & SGS-1    
1 44034U 19007A   23085.64161694  .00000144  00000+0  00000+0 0  9994
2 44034   0.0689 125.4098 0002831  22.6461 305.7252  1.00271378 15531
GSAT-31                 
1 44035U 19007B   23087.50759807  .00000117  00000+0  00000+0 0  9991
2 44035   0.0190 130.0699 0003706 187.3643  98.8167  1.00273541 15170
NUSANTARA SATU          
1 44048U 19009A   23087.32288366 -.00000243  00000+0  00000+0 0  9995
2 44048   0.0301 135.3846 0002085 313.0453 359.2698  1.00271008 14950
CHINASAT 6C (ZX 6C)     
1 44067U 19012A   23087.61230108 -.00000345  00000+0  00000+0 0  9996
2 44067   0.0629 275.5539 0004024  30.1732 230.4102  1.00268492 14933
WGS 10 (USA 291)        
1 44071U 19014A   23087.39216236  .00000039  00000+0  00000+0 0  9993
2 44071   0.0169 163.3823 0000255 144.6366  78.9935  1.00271457 14825
TIANLIAN 2-01           
1 44076U 19017A   23086.95822595 -.00000144  00000+0  00000+0 0  9991
2 44076   0.0982  92.1513 0030117  64.2628  93.6425  1.00272101 14854
ARABSAT-6A              
1 44186U 19021A   23087.57341213  .00000146  00000+0  00000+0 0  9991
2 44186   0.0522 344.9380 0002182   1.1162  76.5932  1.00282319 14350
BEIDOU-3 IGSO-1         
1 44204U 19023A   23086.80257693 -.00000206  00000+0  00000+0 0  9995
2 44204  56.9839  49.9395 0019960 209.0286 334.5865  1.00277270 14552
BEIDOU-2 G8             
1 44231U 19027A   23087.65465122 -.00000255  00000+0  00000+0 0  9995
2 44231   1.5581  80.9421 0004524 140.0709 344.9800  1.00269829 14275
YAMAL 601               
1 44307U 19031A   23086.24354887  .00000112  00000+0  00000+0 0  9994
2 44307   0.0032 209.9525 0002482 150.8915 320.2246  1.00271237 14111
AT&T T-16               
1 44333U 19034A   23087.46983334 -.00000122  00000+0  00000+0 0  9998
2 44333   0.0182 209.3871 0001258  35.3296   9.1696  1.00269781 13834
EUTELSAT 7C             
1 44334U 19034B   23087.31299361  .00000040  00000+0  00000+0 0  9991
2 44334   0.0636 229.5945 0003398 120.1463 315.3935  1.00272059 14304
BEIDOU-3 IGSO-2         
1 44337U 19035A   23086.61785340 -.00000146  00000+0  00000+0 0  9992
2 44337  55.1418 169.2077 0030177 196.7328 160.8752  1.00271044 13881
COSMOS 2539             
1 44457U 19048A   23085.34945284  .00000073  00000+0  00000+0 0  9991
2 44457   0.0226 138.3009 0000484 258.7252 284.3020  1.00273651 13409
EDRS-C                  
1 44475U 19049A   23087.39797113  .00000147  00000+0  00000+0 0  9997
2 44475   0.0801 260.6616 0000796 115.5559 343.7685  1.00270467 13394
INTELSAT 39 (IS-39)     
1 44476U 19049B   23087.15190663  .00000026  00000+0  00000+0 0  9995
2 44476   0.0169 218.4313 0001260 323.2522 120.2397  1.00270976 13339
AMOS-17                 
1 44479U 19050A   23087.42757448  .00000101  00000+0  00000+0 0  9994
2 44479   0.0200 172.4430 0001680 186.0527 357.9923  1.00269476 13385
